UMBRA-07                
1 58297U 23174AT  26068.71829358  .00012685  00000+0  84614-3 0  9990
2 58297  97.3902 128.3323 0004131  75.5473 284.6213 15.07174057128425
STARLINK-34876          
1 65400U 25191X   26068.62597703  .00001665  00000+0  11956-3 0  9996
2 65400  97.6021 301.5241 0002783  61.0245 299.1260 15.05648669 30266
